1 00705U 63049C   22231.35724850  .00000051  00000-0  68569-4 0  9992
2 00705  89.9022  82.7099 0032652 319.3505 214.7663 13.47395168883862
1   705U 63049C   22231.35724850  .00000051  00000-0  68569-4 0  9992
2   705  89.9022  82.7099 0032652 319.3505 214.7663 13.47395168884403
1 00705U 63049C   22231.85318466  .00000048  00000-0  64092-4 0  9992
2 00705  89.9022  82.7050 0032608 317.8704 100.4183 13.47395180883934
1 00705U 63049C   22232.58715476  .00000051  00000-0  68916-4 0  9998
2 00705  89.9021  82.6978 0032544 315.6767  60.7120 13.47395260884035
1 00705U 63049C   22232.89414650  .00000053  00000-0  72136-4 0  9993
2 00705  89.9021  82.6948 0032514 314.7580 109.8485 13.47395269884074
1 00705U 63049C   22233.56302983  .00000056  00000-0  76092-4 0  9991
2 00705  89.9019  82.6881 0032471 312.7429 114.4394 13.47395311884168
1   705U 63049C   22233.56302983  .00000056  00000-0  76092-4 0  9991
2   705  89.9019  82.6881 0032471 312.7429 114.4394 13.47395311884708
1 00705U 63049C   22233.84849475  .00000057  00000-0  78836-4 0  9993
2 00705  89.9019  82.6853 0032450 311.8870  59.1565 13.47395332884207
1 00705U 63049C   22234.32736765  .00000058  00000-0  80092-4 0  9992
2 00705  89.9018  82.6805 0032416 310.4495 222.0480 13.47395375884263
1 00705U 63049C   22234.81367475  .00000057  00000-0  78859-4 0  9991
2 00705  89.9018  82.6757 0032381 308.9851  61.0056 13.47395412884338
1 00705U 63049C   22235.49292596  .00000056  00000-0  75710-4 0  9999
2 00705  89.9017  82.6690 0032338 306.9418 115.8861 13.47395444884429
1   705U 63049C   22235.86410049  .00000060  00000-0  83442-4 0  9991
2   705  89.9016  82.6653 0032321 305.8196 116.3683 13.47395502885019
1 00705U 63049C   22236.39554611  .00000061  00000-0  84383-4 0  9990
2 00705  89.9015  82.6600 0032288 304.2141 174.2874 13.47395555884545
1 00705U 63049C   22237.36157501  .00000061  00000-0  84588-4 0  9992
2 00705  89.9014  82.6504 0032236 301.2938 180.2711 13.47395661884670
1 00705U 63049C   22237.85853683  .00000059  00000-0  81909-4 0  9991
2 00705  89.9014  82.6455 0032210 299.7873  70.9228 13.47395699884743
1   705U 63049C   22238.10325308  .00000062  00000-0  86995-4 0  9992
2   705  89.9014  82.6431 0032202 299.0470 177.9857 13.47395755885317
1 00705U 63049C   22238.17889094  .00000063  00000-0  87163-4 0  9995
2 00705  89.9014  82.6423 0032197 298.8210 184.8849 13.47395760884784
1 00705U 63049C   22239.50235958  .00000060  00000-0  82284-4 0  9993
2 00705  89.9013  82.6291 0032134 294.8041 124.7437 13.47395907884964
1   705U 63049C   22240.10861525  .00000058  00000-0  80119-4 0  9998
2   705  89.9013  82.6231 0032109 292.9586 185.5640 13.47395972885585
1 00705U 63049C   22240.54263264  .00000055  00000-0  75367-4 0  9998
2 00705  89.9012  82.6188 0032088 291.6391 130.8902 13.47395989885101
1 00705U 63049C   22240.83924861  .00000054  00000-0  72747-4 0  9995
2 00705  89.9012  82.6159 0032075 290.7366 129.7122 13.47396003885140
1 00705U 63049C   22241.50687024  .00000050  00000-0  66878-4 0  9991
2 00705  89.9012  82.6092 0032051 288.7045 128.2060 13.47396075885235
1 00705U 63049C   22242.47375572  .00000044  00000-0  56166-4 0  9992
2 00705  89.9012  82.5996 0032018 285.7576 138.3706 13.47396127885367
1   705U 63049C   22242.47375572  .00000044  00000-0  56166-4 0  9992
2   705  89.9012  82.5996 0032018 285.7576 138.3706 13.47396127885907
1 00705U 63049C   22242.84466733  .00000042  00000-0  53919-4 0  9994
2 00705  89.9012  82.5959 0032006 284.6257 137.5888 13.47396148885418
1 00705U 63049C   22243.51203767  .00000040  00000-0  50549-4 0  9999
2 00705  89.9011  82.5893 0031988 282.5869 134.8714 13.47396213885509
1 00705U 63049C   22243.88561556  .00000039  00000-0  47913-4 0  9991
2 00705  89.9012  82.5855 0031980 281.4519 147.0182 13.47396230885559
1 00705U 63049C   22244.35276657  .00000038  00000-0  47390-4 0  9997
2 00705  89.9011  82.5809 0031972 280.0298 253.0711 13.47396259885611
1 00705U 63049C   22244.84999053  .00000038  00000-0  46718-4 0  9996
2 00705  89.9011  82.5759 0031963 278.5100 145.0079 13.47396278885684
1   705U 63049C   22245.15993984  .00000041  00000-0  52732-4 0  9995
2   705  89.9011  82.5728 0031958 277.5616 208.5127 13.47396322886269
1 00705U 63049C   22245.51733760  .00000045  00000-0  59119-4 0  9999
2 00705  89.9011  82.5692 0031953 276.4738 142.1752 13.47396366885777
1 00705U 63049C   22245.89039537  .00000041  00000-0  51443-4 0  9999
2 00705  89.9011  82.5655 0031947 275.3297 151.8097 13.47396352885827
1 00705U 63049C   22246.55591726  .00000051  00000-0  68120-4 0  9997
2 00705  89.9010  82.5589 0031941 273.2982 140.1246 13.47396457885917
1 00705U 63049C   22246.85522289  .00000054  00000-0  73766-4 0  9993
2 00705  89.9010  82.5559 0031939 272.3800 152.0015 13.47396475885950
1   705U 63049C   22247.52283369  .00000061  00000-0  83999-4 0  9998
2   705  89.9009  82.5492 0031936 270.3333 150.4582 13.47396547886581
1 00705U 63049C   22247.59756105  .00000060  00000-0  83463-4 0  9993
2 00705  89.9009  82.5485 0031935 270.1038 152.9473 13.47396552886056
1 00705U 63049C   22248.56097962  .00000069  00000-0  97529-4 0  9997
2 00705  89.9009  82.5388 0031935 267.1581 146.3053 13.47396675886188
1 00705U 63049C   22248.86053510  .00000072  00000-0  10312-3 0  9999
2 00705  89.9009  82.5359 0031937 266.2439 159.3897 13.47396704886228
1 00705U 63049C   22249.52640198  .00000076  00000-0  10918-3 0  9993
2 00705  89.9008  82.5292 0031941 264.2078 149.3824 13.47396793886312
1   705U 63049C   22249.52640198  .00000076  00000-0  10918-3 0  9993
2   705  89.9008  82.5292 0031941 264.2078 149.3824 13.47396793886851
1 00705U 63049C   22249.60379483  .00000076  00000-0  10947-3 0  9990
2 00705  89.9008  82.5284 0031942 263.9710 164.8005 13.47396805886321
1 00705U 63049C   22250.48646831  .00000079  00000-0  11481-3 0  9999
2 00705  89.9008  82.5196 0031952 261.2736 126.4792 13.47396928886449
1 00705U 63049C   22250.56837104  .00000078  00000-0  11202-3 0  9993
2 00705  89.9008  82.5188 0031952 261.0217 163.7752 13.47396933886459
1 00705U 63049C   22251.32282733  .00000077  00000-0  11007-3 0  9992
2 00705  89.9008  82.5113 0031964 258.7188 223.4948 13.47397010886559
1 00705U 63049C   22251.53143380  .00000076  00000-0  10839-3 0  9990
2 00705  89.9008  82.5092 0031970 258.0809 155.4051 13.47397048886588
1   705U 63049C   22251.53143380  .00000076  00000-0  10839-3 0  9990
2   705  89.9008  82.5092 0031970 258.0809 155.4051 13.47397048887129
1 00705U 63049C   22252.49766977  .00000071  00000-0  10104-3 0  9999
2 00705  89.9007  82.4995 0031992 255.1380 162.4204 13.47397155886716
1 00705U 63049C   22252.87098652  .00000069  00000-0  97526-4 0  9990
2 00705  89.9008  82.4958 0032001 254.0001 173.3056 13.47397196886762
1 00705U 63049C   22253.53649927  .00000063  00000-0  88319-4 0  9995
2 00705  89.9008  82.4892 0032021 251.9723 161.5748 13.47397281886850
1   705U 63049C   22253.53649927  .00000063  00000-0  88319-4 0  9995
2   705  89.9008  82.4892 0032021 251.9723 161.5748 13.47397281887390
1 00705U 63049C   22253.92298069  .00000060  00000-0  83054-4 0  9993
2 00705  89.9008  82.4853 0032031 250.8054 236.3080 13.47397308886909
1 00705U 63049C   22254.57795433  .00000059  00000-0  80905-4 0  9992
2 00705  89.9008  82.4788 0032054 248.8043 173.4599 13.47397406886990
1 00705U 63049C   22254.87610226  .00000060  00000-0  82949-4 0  9993
2 00705  89.9008  82.4758 0032065 247.8958 179.7160 13.47397446887036
1   705U 63049C   22255.54164417  .00000061  00000-0  84026-4 0  9993
2   705  89.9008  82.4692 0032093 245.8794 168.1157 13.47397567887661
1 00705U 63049C   22255.84118354  .00000059  00000-0  81181-4 0  9991
2 00705  89.9009  82.4662 0032105 244.9661 181.1222 13.47397580887164
1 00705U 63049C   22256.43485365  .00000058  00000-0  79823-4 0  9995
2 00705  89.9009  82.4603 0032133 243.1587 180.8962 13.47397650887242
1 00705U 63049C   22256.79524532  .00000061  00000-0  84604-4 0  9991
2 00705  89.9009  82.4567 0032149 242.0646 129.0806 13.47397702887297
1 00705U 63049C   22257.54799100  .00000057  00000-0  78086-4 0  9992
2 00705  89.9009  82.4492 0032186 239.7803 180.4908 13.47397778887391
1   705U 63049C   22257.54799100  .00000057  00000-0  78086-4 0  9992
2   705  89.9009  82.4492 0032186 239.7803 180.4908 13.47397778887931
1 00705U 63049C   22257.84640230  .00000059  00000-0  81113-4 0  9991
2 00705  89.9009  82.4462 0032201 238.8751 188.0207 13.47397808887433
1 00705U 63049C   22258.58954712  .00000057  00000-0  77688-4 0  9996
2 00705  89.9009  82.4388 0032242 236.6276 192.8519 13.47397871887533
1 00705U 63049C   22258.80067029  .00000059  00000-0  81365-4 0  9996
2 00705  89.9010  82.4367 0032253 235.9889 136.9639 13.47397884887565
1 00705U 63049C   22259.47824293  .00000060  00000-0  83115-4 0  9991
2 00705  89.9009  82.4299 0032293 233.9416 183.7171 13.47397945887654
1   705U 63049C   22260.08454678  .00000063  00000-0  87143-4 0  9994
2   705  89.9009  82.4239 0032329 232.1095 244.7619 13.47398018888278
1 00705U 63049C   22260.59474311  .00000062  00000-0  86415-4 0  9996
2 00705  89.9009  82.4188 0032361 230.5678 199.6105 13.47398052887800
1 00705U 63049C   22260.90392911  .00000065  00000-0  91372-4 0  9997
2 00705  89.9010  82.4157 0032380 229.6398 259.3964 13.47398077887845
1 00705U 63049C   22261.55836130  .00000068  00000-0  96527-4 0  9995
2 00705  89.9009  82.4092 0032424 227.6731 193.8903 13.47398152887938
1   705U 63049C   22262.09033490  .00000070  00000-0  98754-4 0  9990
2   705  89.9010  82.4039 0032458 226.0758 254.3655 13.47398203888542
1 00705U 63049C   22262.44854580  .00000073  00000-0  10413-3 0  9998
2 00705  89.9009  82.4003 0032481 224.9993 191.9611 13.47398261888053
1 00705U 63049C   22263.48224271  .00000075  00000-0  10725-3 0  9999
2 00705  89.9009  82.3900 0032556 221.9027 166.1684 13.47398377888193
1 00705U 63049C   22263.78633398  .00000076  00000-0  10841-3 0  9996
2 00705  89.9010  82.3870 0032579 220.9919 201.2397 13.47398401888230
